[{"OBJECT_NAME":"STARLINK-32458","OBJECT_ID":"2024-210D","EPOCH":"2026-03-09T11:31:17.088096","MEAN_MOTION":15.27575869,"ECCENTRICITY":0.00011369,"INCLINATION":42.9997,"RA_OF_ASC_NODE":166.6667,"ARG_OF_PERICENTER":256.8221,"MEAN_ANOMALY":103.2504,"EPHEMERIS_TYPE":0,"CLASSIFICATION_TYPE":"U","NORAD_CAT_ID":61962,"ELEMENT_SET_NO":999,"REV_AT_EPOCH":7504,"BSTAR":0.0010036825,"MEAN_MOTION_DOT":0.00027456,"MEAN_MOTION_DDOT":0},{"OBJECT_NAME":"LIME","OBJECT_ID":"2025-009AR","EPOCH":"2026-03-09T17:44:15.459648","MEAN_MOTION":15.28703313,"ECCENTRICITY":0.00016347,"INCLINATION":97.3985,"RA_OF_ASC_NODE":151.4831,"ARG_OF_PERICENTER":35.9029,"MEAN_ANOMALY":324.232,"EPHEMERIS_TYPE":0,"CLASSIFICATION_TYPE":"U","NORAD_CAT_ID":62648,"ELEMENT_SET_NO":999,"REV_AT_EPOCH":6376,"BSTAR":0.00047722827,"MEAN_MOTION_DOT":0.00013254,"MEAN_MOTION_DDOT":0}]
